[
    {
        "Altitude(m)": 717707.2764655591,
        "Argument of Periapsis(deg)": 0.0011390121186627068,
        "Eccentricity": 0.0,
        "Inclination(deg)": 45.0,
        "Latitude(deg)": -44.7269181181383,
        "Longitude(deg)": -19.91989858801219,
        "Mean Anomaly(deg)": -97.02847833525186,
        "RAAN(deg)": 179.9989248058542,
        "Satellite Name": "Constellation 1 808",
        "Satellite Number": 808,
        "Semi-Major Axis(m)": 7083131.272910544,
        "Time(s)": 19
    },
    {
        "Altitude(m)": 717710.2851539537,
        "Argument of Periapsis(deg)": 0.0011989601249081123,
        "Eccentricity": 0.0,
        "Inclination(deg)": 45.0,
        "Latitude(deg)": -44.73423808195393,
        "Longitude(deg)": -19.839617200300378,
        "Mean Anomaly(deg)": -96.96777719500203,
        "RAAN(deg)": 179.99886821668858,
        "Satellite Name": "Constellation 1 808",
        "Satellite Number": 808,
        "Semi-Major Axis(m)": 7083131.272910544,
        "Time(s)": 20
    },
    {
        "Altitude(m)": 717713.2680727686,
        "Argument of Periapsis(deg)": 0.001258908131153518,
        "Eccentricity": 0.0,
        "Inclination(deg)": 45.0,
        "Latitude(deg)": -44.74149568634041,
        "Longitude(deg)": -19.759314655750888,
        "Mean Anomaly(deg)": -96.90707605475214,
        "RAAN(deg)": 179.99881162752303,
        "Satellite Name": "Constellation 1 808",
        "Satellite Number": 808,
        "Semi-Major Axis(m)": 7083131.272910544,
        "Time(s)": 21
    },
    {
        "Altitude(m)": 717716.2252109778,
        "Argument of Periapsis(deg)": 0.0013188561373989236,
        "Eccentricity": 0.0,
        "Inclination(deg)": 45.0,
        "Latitude(deg)": -44.7486909002864,
        "Longitude(deg)": -19.678991292928,
        "Mean Anomaly(deg)": -96.84637491450223,
        "RAAN(deg)": 179.99875503835747,
        "Satellite Name": "Constellation 1 808",
        "Satellite Number": 808,
        "Semi-Major Axis(m)": 7083131.272910544,
        "Time(s)": 22
    },
    {
        "Altitude(m)": 717719.1565576426,
        "Argument of Periapsis(deg)": 0.0013788041436443293,
        "Eccentricity": 0.0,
        "Inclination(deg)": 45.0,
        "Latitude(deg)": -44.75582369302711,
        "Longitude(deg)": -19.598646946460427,
        "Mean Anomaly(deg)": -96.7856737742523,
        "RAAN(deg)": 179.9986984491919,
        "Satellite Name": "Constellation 1 808",
        "Satellite Number": 808,
        "Semi-Major Axis(m)": 7083131.272910544,
        "Time(s)": 23
    },
    {
        "Altitude(m)": 717722.0621019319,
        "Argument of Periapsis(deg)": 0.001438752149889735,
        "Eccentricity": 0.0,
        "Inclination(deg)": 45.0,
        "Latitude(deg)": -44.762894034046504,
        "Longitude(deg)": -19.518281955622186,
        "Mean Anomaly(deg)": -96.72497263400244,
        "RAAN(deg)": 179.99864186002634,
        "Satellite Name": "Constellation 1 808",
        "Satellite Number": 808,
        "Semi-Major Axis(m)": 7083131.272910544,
        "Time(s)": 24
    },
    {
        "Altitude(m)": 717724.9418330974,
        "Argument of Periapsis(deg)": 0.0014987001561351404,
        "Eccentricity": 0.0,
        "Inclination(deg)": 45.0,
        "Latitude(deg)": -44.76990189307691,
        "Longitude(deg)": -19.437896491940638,
        "Mean Anomaly(deg)": -96.6642714937525,
        "RAAN(deg)": 179.99858527086076,
        "Satellite Name": "Constellation 1 808",
        "Satellite Number": 808,
        "Semi-Major Axis(m)": 7083131.272910544,
        "Time(s)": 25
    },
    {
        "Altitude(m)": 717727.7957404858,
        "Argument of Periapsis(deg)": 0.001558648162380546,
        "Eccentricity": 0.0,
        "Inclination(deg)": 45.0,
        "Latitude(deg)": -44.77684724009985,
        "Longitude(deg)": -19.357490727292213,
        "Mean Anomaly(deg)": -96.60357035350262,
        "RAAN(deg)": 179.99852868169518,
        "Satellite Name": "Constellation 1 808",
        "Satellite Number": 808,
        "Semi-Major Axis(m)": 7083131.272910544,
        "Time(s)": 26
    },
    {
        "Altitude(m)": 717730.6238135541,
        "Argument of Periapsis(deg)": 0.0016185961686259519,
        "Eccentricity": 0.0,
        "Inclination(deg)": 45.0,
        "Latitude(deg)": -44.78373004534659,
        "Longitude(deg)": -19.277064833898525,
        "Mean Anomaly(deg)": -96.54286921325267,
        "RAAN(deg)": 179.99847209252962,
        "Satellite Name": "Constellation 1 808",
        "Satellite Number": 808,
        "Semi-Major Axis(m)": 7083131.272910544,
        "Time(s)": 27
    },
    {
        "Altitude(m)": 717733.4260418379,
        "Argument of Periapsis(deg)": 0.0016785441748713573,
        "Eccentricity": 0.0,
        "Inclination(deg)": 45.0,
        "Latitude(deg)": -44.79055027929884,
        "Longitude(deg)": -19.19661898432498,
        "Mean Anomaly(deg)": -96.4821680730028,
        "RAAN(deg)": 179.99841550336404,
        "Satellite Name": "Constellation 1 808",
        "Satellite Number": 808,
        "Semi-Major Axis(m)": 7083131.272910544,
        "Time(s)": 28
    },
    {
        "Altitude(m)": 717736.2024149711,
        "Argument of Periapsis(deg)": 0.001738492181116763,
        "Eccentricity": 0.0,
        "Inclination(deg)": 45.0,
        "Latitude(deg)": -44.79730791268927,
        "Longitude(deg)": -19.11615335147705,
        "Mean Anomaly(deg)": -96.42146693275296,
        "RAAN(deg)": 179.9983589141985,
        "Satellite Name": "Constellation 1 808",
        "Satellite Number": 808,
        "Semi-Major Axis(m)": 7083131.272910544,
        "Time(s)": 29
    },
    {
        "Altitude(m)": 717738.9529226932,
        "Argument of Periapsis(deg)": 0.0017984401873621684,
        "Eccentricity": 0.0,
        "Inclination(deg)": 45.0,
        "Latitude(deg)": -44.804002916502455,
        "Longitude(deg)": -19.035668276695265,
        "Mean Anomaly(deg)": -96.360765792503,
        "RAAN(deg)": 179.9983023250329,
        "Satellite Name": "Constellation 1 808",
        "Satellite Number": 808,
        "Semi-Major Axis(m)": 7083131.272910544,
        "Time(s)": 30
    },
    {
        "Altitude(m)": 717741.6775548265,
        "Argument of Periapsis(deg)": 0.0018583881936075745,
        "Eccentricity": 0.0,
        "Inclination(deg)": 45.0,
        "Latitude(deg)": -44.81063526197417,
        "Longitude(deg)": -18.955163597364383,
        "Mean Anomaly(deg)": -96.30006465225314,
        "RAAN(deg)": 179.99824573586733,
        "Satellite Name": "Constellation 1 808",
        "Satellite Number": 808,
        "Semi-Major Axis(m)": 7083131.272910544,
        "Time(s)": 31
    },
    {
        "Altitude(m)": 717744.3763012965,
        "Argument of Periapsis(deg)": 0.0019183361998529795,
        "Eccentricity": 0.0,
        "Inclination(deg)": 45.0,
        "Latitude(deg)": -44.817204920593895,
        "Longitude(deg)": -18.87463965549276,
        "Mean Anomaly(deg)": -96.23936351200322,
        "RAAN(deg)": 179.99818914670178,
        "Satellite Name": "Constellation 1 808",
        "Satellite Number": 808,
        "Semi-Major Axis(m)": 7083131.272910544,
        "Time(s)": 32
    },
    {
        "Altitude(m)": 717747.0491521192,
        "Argument of Periapsis(deg)": 0.0019782842060983856,
        "Eccentricity": 0.0,
        "Inclination(deg)": 45.0,
        "Latitude(deg)": -44.82371186410409,
        "Longitude(deg)": -18.794096625321508,
        "Mean Anomaly(deg)": -96.17866237175332,
        "RAAN(deg)": 179.99813255753622,
        "Satellite Name": "Constellation 1 808",
        "Satellite Number": 808,
        "Semi-Major Axis(m)": 7083131.272910544,
        "Time(s)": 33
    },
    {
        "Altitude(m)": 717749.6960974139,
        "Argument of Periapsis(deg)": 0.0020382322123437906,
        "Eccentricity": 0.0,
        "Inclination(deg)": 45.0,
        "Latitude(deg)": -44.83015606450108,
        "Longitude(deg)": -18.71353468141914,
        "Mean Anomaly(deg)": -96.11796123150344,
        "RAAN(deg)": 179.9980759683706,
        "Satellite Name": "Constellation 1 808",
        "Satellite Number": 808,
        "Semi-Major Axis(m)": 7083131.272910544,
        "Time(s)": 34
    },
    {
        "Altitude(m)": 717752.3171273833,
        "Argument of Periapsis(deg)": 0.002098180218589197,
        "Eccentricity": 0.0,
        "Inclination(deg)": 45.0,
        "Latitude(deg)": -44.8365374940357,
        "Longitude(deg)": -18.632953998678286,
        "Mean Anomaly(deg)": -96.05726009125348,
        "RAAN(deg)": 179.99801937920506,
        "Satellite Name": "Constellation 1 808",
        "Satellite Number": 808,
        "Semi-Major Axis(m)": 7083131.272910544,
        "Time(s)": 35
    },
    {
        "Altitude(m)": 717754.9122323359,
        "Argument of Periapsis(deg)": 0.002158128224834602,
        "Eccentricity": 0.0,
        "Inclination(deg)": 45.0,
        "Latitude(deg)": -44.84285612521367,
        "Longitude(deg)": -18.55235475231386,
        "Mean Anomaly(deg)": -95.99655895100362,
        "RAAN(deg)": 179.99796279003948,
        "Satellite Name": "Constellation 1 808",
        "Satellite Number": 808,
        "Semi-Major Axis(m)": 7083131.272910544,
        "Time(s)": 36
    },
    {
        "Altitude(m)": 717757.481402674,
        "Argument of Periapsis(deg)": 0.002218076231080008,
        "Eccentricity": 0.0,
        "Inclination(deg)": 45.0,
        "Latitude(deg)": -44.84911193079673,
        "Longitude(deg)": -18.471737285956266,
        "Mean Anomaly(deg)": -95.93585781075372,
        "RAAN(deg)": 179.99790620087393,
        "Satellite Name": "Constellation 1 808",
        "Satellite Number": 808,
        "Semi-Major Axis(m)": 7083131.272910544,
        "Time(s)": 37
    }
]